[{"OBJECT_NAME":"STARLINK-32698","OBJECT_ID":"2024-239M","EPOCH":"2026-03-09T14:02:03.161184","MEAN_MOTION":15.30145167,"ECCENTRICITY":0.000118,"INCLINATION":53.1585,"RA_OF_ASC_NODE":194.7038,"ARG_OF_PERICENTER":95.0575,"MEAN_ANOMALY":265.056,"EPHEMERIS_TYPE":0,"CLASSIFICATION_TYPE":"U","NORAD_CAT_ID":62312,"ELEMENT_SET_NO":999,"REV_AT_EPOCH":6936,"BSTAR":0.0012139,"MEAN_MOTION_DOT":0.00035706,"MEAN_MOTION_DDOT":0},{"OBJECT_NAME":"SPACEMOBILE-001 DEB","OBJECT_ID":"2024-163F","EPOCH":"2026-03-09T07:17:56.452704","MEAN_MOTION":15.32884299,"ECCENTRICITY":0.00071876,"INCLINATION":52.9956,"RA_OF_ASC_NODE":27.518,"ARG_OF_PERICENTER":196.7865,"MEAN_ANOMALY":163.2898,"EPHEMERIS_TYPE":0,"CLASSIFICATION_TYPE":"U","NORAD_CAT_ID":62369,"ELEMENT_SET_NO":999,"REV_AT_EPOCH":7117,"BSTAR":0.00044817004,"MEAN_MOTION_DOT":0.00014099,"MEAN_MOTION_DDOT":0}]
